{
  "type": "FeatureCollection",
  "features": [
    {
      "type": "Feature",
      "properties": {
        "norad_id": 31073,
        "name": "FENGYUN 1C DEB",
        "group": "fengyun-1c-debris",
        "lat": -30.95178258356702,
        "lon": 15.919297738149744,
        "alt_km": 798.9882153141125,
        "timestamp": "2025-12-17T13:48:37.834896+00:00",
        "meta_object_name": "FENGYUN 1C DEB",
        "meta_object_id": "1999-025BFT",
        "meta_epoch": "2025-12-17T01:01:11.306208",
        "meta_mean_motion": 14.24820629,
        "meta_eccentricity": 0.00452054,
        "meta_inclination": 99.22,
        "meta_ra_of_asc_node": 200.95,
        "meta_arg_of_pericenter": 273.4604,
        "meta_mean_anomaly": 86.1403,
        "meta_ephemeris_type": 0,
        "meta_classification_type": "U",
        "meta_norad_cat_id": 31073,
        "meta_element_set_no": 999,
        "meta_rev_at_epoch": 97144,
        "meta_bstar": 0.00092478452,
        "meta_mean_motion_dot": 2.132e-05,
        "meta_mean_motion_ddot": 0,
        "tle_line1": "1 31073U 99025BFT 25351.04249197  .00002132  00000+0  92478-3 0  9991",
        "tle_line2": "2 31073  99.2200 200.9500 0045205 273.4604  86.1403 14.24820629971441"
      },
      "geometry": {
        "type": "Point",
        "coordinates": [
          15.919297738149744,
          -30.95178258356702
        ]
      }
    },
    {
      "type": "Feature",
      "properties": {
        "norad_id": 31074,
        "name": "FENGYUN 1C DEB",
        "group": "fengyun-1c-debris",
        "lat": -40.41597749899085,
        "lon": -85.69389224492878,
        "alt_km": 826.1870005587416,
        "timestamp": "2025-12-17T13:48:37.834906+00:00",
        "meta_object_name": "FENGYUN 1C DEB",
        "meta_object_id": "1999-025BFU",
        "meta_epoch": "2025-12-17T05:30:51.395328",
        "meta_mean_motion": 14.14275088,
        "meta_eccentricity": 0.00868826,
        "meta_inclination": 98.959,
        "meta_ra_of_asc_node": 266.2395,
        "meta_arg_of_pericenter": 253.1219,
        "meta_mean_anomaly": 106.0413,
        "meta_ephemeris_type": 0,
        "meta_classification_type": "U",
        "meta_norad_cat_id": 31074,
        "meta_element_set_no": 999,
        "meta_rev_at_epoch": 95643,
        "meta_bstar": 0.001644627,
        "meta_mean_motion_dot": 3.212e-05,
        "meta_mean_motion_ddot": 0,
        "tle_line1": "1 31074U 99025BFU 25351.22976152  .00003212  00000+0  16446-2 0  9990",
        "tle_line2": "2 31074  98.9590 266.2395 0086882 253.1219 106.0413 14.14275088956437"
      },
      "geometry": {
        "type": "Point",
        "coordinates": [
          -85.69389224492878,
          -40.41597749899085
        ]
      }
    },
    {
      "type": "Feature",
      "properties": {
        "norad_id": 31078,
        "name": "FENGYUN 1C DEB",
        "group": "fengyun-1c-debris",
        "lat": 63.00658184571798,
        "lon": 34.193866105057616,
        "alt_km": 783.1563595786492,
        "timestamp": "2025-12-17T13:48:37.834915+00:00",
        "meta_object_name": "FENGYUN 1C DEB",
        "meta_object_id": "1999-025BFY",
        "meta_epoch": "2025-12-15T10:54:33.357600",
        "meta_mean_motion": 14.22084734,
        "meta_eccentricity": 0.0117132,
        "meta_inclination": 98.8675,
        "meta_ra_of_asc_node": 49.9086,
        "meta_arg_of_pericenter": 141.0899,
        "meta_mean_anomaly": 232.8229,
        "meta_ephemeris_type": 0,
        "meta_classification_type": "U",
        "meta_norad_cat_id": 31078,
        "meta_element_set_no": 999,
        "meta_rev_at_epoch": 96931,
        "meta_bstar": 0.00048192939,
        "meta_mean_motion_dot": 1.1e-05,
        "meta_mean_motion_ddot": 0,
        "tle_line1": "1 31078U 99025BFY 25349.45455275  .00001100  00000+0  48193-3 0  9993",
        "tle_line2": "2 31078  98.8675  49.9086 0117132 141.0899 232.8229 14.22084734969318"
      },
      "geometry": {
        "type": "Point",
        "coordinates": [
          34.193866105057616,
          63.00658184571798
        ]
      }
    },
    {
      "type": "Feature",
      "properties": {
        "norad_id": 31081,
        "name": "FENGYUN 1C DEB",
        "group": "fengyun-1c-debris",
        "lat": -71.40519948887025,
        "lon": 35.172956711896326,
        "alt_km": 867.0015215810636,
        "timestamp": "2025-12-17T13:48:37.834925+00:00",
        "meta_object_name": "FENGYUN 1C DEB",
        "meta_object_id": "1999-025BGB",
        "meta_epoch": "2025-12-16T07:28:53.092704",
        "meta_mean_motion": 14.06299429,
        "meta_eccentricity": 0.00474774,
        "meta_inclination": 98.7703,
        "meta_ra_of_asc_node": 6.6357,
        "meta_arg_of_pericenter": 220.7683,
        "meta_mean_anomaly": 151.0028,
        "meta_ephemeris_type": 0,
        "meta_classification_type": "U",
        "meta_norad_cat_id": 31081,
        "meta_element_set_no": 999,
        "meta_rev_at_epoch": 96511,
        "meta_bstar": -2.9451467e-05,
        "meta_mean_motion_dot": -9.2e-07,
        "meta_mean_motion_ddot": 0,
        "tle_line1": "1 31081U 99025BGB 25350.31172561 -.00000092  00000+0 -29451-4 0  9996",
        "tle_line2": "2 31081  98.7703   6.6357 0047477 220.7683 151.0028 14.06299429965118"
      },
      "geometry": {
        "type": "Point",
        "coordinates": [
          35.172956711896326,
          -71.40519948887025
        ]
      }
    },
    {
      "type": "Feature",
      "properties": {
        "norad_id": 31083,
        "name": "FENGYUN 1C DEB",
        "group": "fengyun-1c-debris",
        "lat": -45.235239541372685,
        "lon": -79.58079159210826,
        "alt_km": 683.3475432191099,
        "timestamp": "2025-12-17T13:48:37.834935+00:00",
        "meta_object_name": "FENGYUN 1C DEB",
        "meta_object_id": "1999-025BGD",
        "meta_epoch": "2025-12-16T07:20:30.983424",
        "meta_mean_motion": 14.62126771,
        "meta_eccentricity": 0.00315124,
        "meta_inclination": 98.6463,
        "meta_ra_of_asc_node": 107.9165,
        "meta_arg_of_pericenter": 294.3272,
        "meta_mean_anomaly": 93.3439,
        "meta_ephemeris_type": 0,
        "meta_classification_type": "U",
        "meta_norad_cat_id": 31083,
        "meta_element_set_no": 999,
        "meta_rev_at_epoch": 97762,
        "meta_bstar": 0.0018590193,
        "meta_mean_motion_dot": 9.371e-05,
        "meta_mean_motion_ddot": 0,
        "tle_line1": "1 31083U 99025BGD 25350.30591416  .00009371  00000+0  18590-2 0  9998",
        "tle_line2": "2 31083  98.6463 107.9165 0031512 294.3272  93.3439 14.62126771977622"
      },
      "geometry": {
        "type": "Point",
        "coordinates": [
          -79.58079159210826,
          -45.235239541372685
        ]
      }
    },
    {
      "type": "Feature",
      "properties": {
        "norad_id": 31085,
        "name": "FENGYUN 1C DEB",
        "group": "fengyun-1c-debris",
        "lat": 21.793652600121458,
        "lon": 16.14611960476952,
        "alt_km": 846.3692772919758,
        "timestamp": "2025-12-17T13:48:37.834945+00:00",
        "meta_object_name": "FENGYUN 1C DEB",
        "meta_object_id": "1999-025BGF",
        "meta_epoch": "2025-12-16T00:51:13.504608",
        "meta_mean_motion": 14.30311137,
        "meta_eccentricity": 0.00871767,
        "meta_inclination": 98.984,
        "meta_ra_of_asc_node": 190.93,
        "meta_arg_of_pericenter": 8.5226,
        "meta_mean_anomaly": 144.3726,
        "meta_ephemeris_type": 0,
        "meta_classification_type": "U",
        "meta_norad_cat_id": 31085,
        "meta_element_set_no": 999,
        "meta_rev_at_epoch": 97763,
        "meta_bstar": 9.9027588e-05,
        "meta_mean_motion_dot": 2.21e-06,
        "meta_mean_motion_ddot": 0,
        "tle_line1": "1 31085U 99025BGF 25350.03557297  .00000221  00000+0  99028-4 0  9991",
        "tle_line2": "2 31085  98.9840 190.9300 0087176   8.5226 144.3726 14.30311137977634"
      },
      "geometry": {
        "type": "Point",
        "coordinates": [
          16.14611960476952,
          21.793652600121458
        ]
      }
    },
    {
      "type": "Feature",
      "properties": {
        "norad_id": 31087,
        "name": "FENGYUN 1C DEB",
        "group": "fengyun-1c-debris",
        "lat": 79.9669358717692,
        "lon": -114.49107464908896,
        "alt_km": 806.0984314241787,
        "timestamp": "2025-12-17T13:48:37.834955+00:00",
        "meta_object_name": "FENGYUN 1C DEB",
        "meta_object_id": "1999-025BGH",
        "meta_epoch": "2025-12-16T07:50:52.450944",
        "meta_mean_motion": 14.6034546,
        "meta_eccentricity": 0.01717787,
        "meta_inclination": 98.1022,
        "meta_ra_of_asc_node": 10.6598,
        "meta_arg_of_pericenter": 279.6243,
        "meta_mean_anomaly": 96.826,
        "meta_ephemeris_type": 0,
        "meta_classification_type": "U",
        "meta_norad_cat_id": 31087,
        "meta_element_set_no": 999,
        "meta_rev_at_epoch": 98822,
        "meta_bstar": 0.00059342809,
        "meta_mean_motion_dot": 3.476e-05,
        "meta_mean_motion_ddot": 0,
        "tle_line1": "1 31087U 99025BGH 25350.32699596  .00003476  00000+0  59343-3 0  9994",
        "tle_line2": "2 31087  98.1022  10.6598 0171778 279.6243  96.8260 14.60345460988229"
      },
      "geometry": {
        "type": "Point",
        "coordinates": [
          -114.49107464908896,
          79.9669358717692
        ]
      }
    }
  ]
}